{
  "type": "FeatureCollection",
  "features": [
    {
      "type": "Feature",
      "properties": {
        "norad_id": 44873,
        "name": "CSG-1",
        "group": "resource",
        "lat": -10.911045528710012,
        "lon": -22.690979650851368,
        "alt_km": 627.1117422864381,
        "timestamp": "2025-12-03T08:58:45.656925+00:00",
        "meta_object_name": "CSG-1",
        "meta_object_id": "2019-092A",
        "meta_epoch": "2025-12-02T22:23:58.160256",
        "meta_mean_motion": 14.82173594,
        "meta_eccentricity": 0.0001377,
        "meta_inclination": 97.8806,
        "meta_ra_of_asc_node": 158.405,
        "meta_arg_of_pericenter": 83.3205,
        "meta_mean_anomaly": 276.8165,
        "meta_ephemeris_type": 0,
        "meta_classification_type": "U",
        "meta_norad_cat_id": 44873,
        "meta_element_set_no": 999,
        "meta_rev_at_epoch": 32240,
        "meta_bstar": 0.00011625,
        "meta_mean_motion_dot": 8.74e-06,
        "meta_mean_motion_ddot": 0,
        "tle_line1": "1 44873U 19092A   25336.93331204  .00000874  00000+0  11625-3 0  9997",
        "tle_line2": "2 44873  97.8806 158.4050 0001377  83.3205 276.8165 14.82173594322408"
      },
      "geometry": {
        "type": "Point",
        "coordinates": [
          -22.690979650851368,
          -10.911045528710012
        ]
      }
    },
    {
      "type": "Feature",
      "properties": {
        "norad_id": 46277,
        "name": "NEMO-HD",
        "group": "resource",
        "lat": -16.573808425283303,
        "lon": -145.5698465097237,
        "alt_km": 452.0444157839929,
        "timestamp": "2025-12-03T08:58:45.656935+00:00",
        "meta_object_name": "NEMO-HD",
        "meta_object_id": "2020-061F",
        "meta_epoch": "2025-12-03T03:27:00.735264",
        "meta_mean_motion": 15.4001888,
        "meta_eccentricity": 0.0002357,
        "meta_inclination": 97.2233,
        "meta_ra_of_asc_node": 36.366,
        "meta_arg_of_pericenter": 68.3281,
        "meta_mean_anomaly": 291.8216,
        "meta_ephemeris_type": 0,
        "meta_classification_type": "U",
        "meta_norad_cat_id": 46277,
        "meta_element_set_no": 999,
        "meta_rev_at_epoch": 29176,
        "meta_bstar": 0.00034769,
        "meta_mean_motion_dot": 0.00013808,
        "meta_mean_motion_ddot": 0,
        "tle_line1": "1 46277U 20061F   25337.14375851  .00013808  00000+0  34769-3 0  9990",
        "tle_line2": "2 46277  97.2233  36.3660 0002357  68.3281 291.8216 15.40018880291762"
      },
      "geometry": {
        "type": "Point",
        "coordinates": [
          -145.5698465097237,
          -16.573808425283303
        ]
      }
    },
    {
      "type": "Feature",
      "properties": {
        "norad_id": 46984,
        "name": "SENTINEL-6A",
        "group": "resource",
        "lat": 55.69236796260144,
        "lon": -38.90664912905014,
        "alt_km": 1336.8678137113611,
        "timestamp": "2025-12-03T08:58:45.656945+00:00",
        "meta_object_name": "SENTINEL-6A",
        "meta_object_id": "2020-086A",
        "meta_epoch": "2025-12-03T00:53:02.162112",
        "meta_mean_motion": 12.80930029,
        "meta_eccentricity": 0.000773,
        "meta_inclination": 66.0388,
        "meta_ra_of_asc_node": 182.4612,
        "meta_arg_of_pericenter": 269.1497,
        "meta_mean_anomaly": 90.8633,
        "meta_ephemeris_type": 0,
        "meta_classification_type": "U",
        "meta_norad_cat_id": 46984,
        "meta_element_set_no": 999,
        "meta_rev_at_epoch": 23520,
        "meta_bstar": 0.00013407,
        "meta_mean_motion_dot": -3e-07,
        "meta_mean_motion_ddot": 0,
        "tle_line1": "1 46984U 20086A   25337.03683058 -.00000030  00000+0  13407-3 0  9991",
        "tle_line2": "2 46984  66.0388 182.4612 0007730 269.1497  90.8633 12.80930029235208"
      },
      "geometry": {
        "type": "Point",
        "coordinates": [
          -38.90664912905014,
          55.69236796260144
        ]
      }
    },
    {
      "type": "Feature",
      "properties": {
        "norad_id": 48079,
        "name": "GAOFEN-12 02",
        "group": "resource",
        "lat": 38.273092141890594,
        "lon": 157.7844721769157,
        "alt_km": 622.315922939958,
        "timestamp": "2025-12-03T08:58:45.656955+00:00",
        "meta_object_name": "GAOFEN-12 02",
        "meta_object_id": "2021-026A",
        "meta_epoch": "2025-12-03T05:06:00.758592",
        "meta_mean_motion": 14.80656126,
        "meta_eccentricity": 0.0003252,
        "meta_inclination": 97.9849,
        "meta_ra_of_asc_node": 331.2652,
        "meta_arg_of_pericenter": 120.1414,
        "meta_mean_anomaly": 240.0121,
        "meta_ephemeris_type": 0,
        "meta_classification_type": "U",
        "meta_norad_cat_id": 48079,
        "meta_element_set_no": 999,
        "meta_rev_at_epoch": 25276,
        "meta_bstar": 0.00010268,
        "meta_mean_motion_dot": 7.36e-06,
        "meta_mean_motion_ddot": 0,
        "tle_line1": "1 48079U 21026A   25337.21250878  .00000736  00000+0  10268-3 0  9997",
        "tle_line2": "2 48079  97.9849 331.2652 0003252 120.1414 240.0121 14.80656126252764"
      },
      "geometry": {
        "type": "Point",
        "coordinates": [
          157.7844721769157,
          38.273092141890594
        ]
      }
    },
    {
      "type": "Feature",
      "properties": {
        "norad_id": 48268,
        "name": "PLEIADES NEO 3",
        "group": "resource",
        "lat": 5.473478077538821,
        "lon": -129.2888369891858,
        "alt_km": 626.2089272982712,
        "timestamp": "2025-12-03T08:58:45.656968+00:00",
        "meta_object_name": "PLEIADES NEO 3",
        "meta_object_id": "2021-034A",
        "meta_epoch": "2025-12-03T04:57:12.528000",
        "meta_mean_motion": 14.81667901,
        "meta_eccentricity": 0.0001265,
        "meta_inclination": 97.8947,
        "meta_ra_of_asc_node": 49.784,
        "meta_arg_of_pericenter": 93.7966,
        "meta_mean_anomaly": 266.3391,
        "meta_ephemeris_type": 0,
        "meta_classification_type": "U",
        "meta_norad_cat_id": 48268,
        "meta_element_set_no": 999,
        "meta_rev_at_epoch": 24863,
        "meta_bstar": -1.3823e-06,
        "meta_mean_motion_dot": -6.3e-07,
        "meta_mean_motion_ddot": 0,
        "tle_line1": "1 48268U 21034A   25337.20639500 -.00000063  00000+0 -13823-5 0  9995",
        "tle_line2": "2 48268  97.8947  49.7840 0001265  93.7966 266.3391 14.81667901248636"
      },
      "geometry": {
        "type": "Point",
        "coordinates": [
          -129.2888369891858,
          5.473478077538821
        ]
      }
    },
    {
      "type": "Feature",
      "properties": {
        "norad_id": 49070,
        "name": "PLEIADES NEO 4",
        "group": "resource",
        "lat": -5.683194574166373,
        "lon": 50.736558468264725,
        "alt_km": 627.9818751783496,
        "timestamp": "2025-12-03T08:58:45.656979+00:00",
        "meta_object_name": "PLEIADES NEO 4",
        "meta_object_id": "2021-073E",
        "meta_epoch": "2025-12-03T04:08:34.217664",
        "meta_mean_motion": 14.81671819,
        "meta_eccentricity": 0.0001264,
        "meta_inclination": 97.8949,
        "meta_ra_of_asc_node": 49.7467,
        "meta_arg_of_pericenter": 97.8279,
        "meta_mean_anomaly": 262.3077,
        "meta_ephemeris_type": 0,
        "meta_classification_type": "U",
        "meta_norad_cat_id": 49070,
        "meta_element_set_no": 999,
        "meta_rev_at_epoch": 23234,
        "meta_bstar": 9.8084e-07,
        "meta_mean_motion_dot": -4.4e-07,
        "meta_mean_motion_ddot": 0,
        "tle_line1": "1 49070U 21073E   25337.17261826 -.00000044  00000+0  98084-6 0  9999",
        "tle_line2": "2 49070  97.8949  49.7467 0001264  97.8279 262.3077 14.81671819232347"
      },
      "geometry": {
        "type": "Point",
        "coordinates": [
          50.736558468264725,
          -5.683194574166373
        ]
      }
    },
    {
      "type": "Feature",
      "properties": {
        "norad_id": 49260,
        "name": "LANDSAT 9",
        "group": "resource",
        "lat": 61.20871456117997,
        "lon": -119.14812164619136,
        "alt_km": 695.8544545686318,
        "timestamp": "2025-12-03T08:58:45.656989+00:00",
        "meta_object_name": "LANDSAT 9",
        "meta_object_id": "2021-088A",
        "meta_epoch": "2025-12-03T03:29:50.017056",
        "meta_mean_motion": 14.57113829,
        "meta_eccentricity": 0.0001084,
        "meta_inclination": 98.2103,
        "meta_ra_of_asc_node": 45.3951,
        "meta_arg_of_pericenter": 92.8083,
        "meta_mean_anomaly": 267.3239,
        "meta_ephemeris_type": 0,
        "meta_classification_type": "U",
        "meta_norad_cat_id": 49260,
        "meta_element_set_no": 999,
        "meta_rev_at_epoch": 22245,
        "meta_bstar": 0.00015032,
        "meta_mean_motion_dot": 6.32e-06,
        "meta_mean_motion_ddot": 0,
        "tle_line1": "1 49260U 21088A   25337.14571779  .00000632  00000+0  15032-3 0  9995",
        "tle_line2": "2 49260  98.2103  45.3951 0001084  92.8083 267.3239 14.57113829222454"
      },
      "geometry": {
        "type": "Point",
        "coordinates": [
          -119.14812164619136,
          61.20871456117997
        ]
      }
    }
  ]
}